25943,GLOBALSTAR M057,1999,117.57,-1.0,-,52.0,Inactive,0,LEO,Kazakhstan,Globalstar,Unknown,Unknown,Soyuz,1 25943U 99058A   23252.61381194 -.00000089  00000+0  36897-4 0  9995,2 25943  52.0011  23.0776 0003352 118.9732 241.1453 12.24771226 87709,12.24771226,0.0003352,LEO
25944,GLOBALSTAR M059,1999,120.0,-1.0,-,52.0,Inactive,0,LEO,Kazakhstan,Globalstar,Unknown,Unknown,Soyuz,1 25944U 99058B   23253.22417869 -.00000093  00000+0 -88497-4 0  9992,2 25944  52.0010 154.6677 0000773  71.5662  95.5270 11.99952324 85246,11.99952324,7.73e-05,LEO
25945,GLOBALSTAR M056,1999,119.53,-1.0,-,52.0,Inactive,0,LEO,Kazakhstan,Globalstar,Unknown,Unknown,Soyuz,1 25945U 99058C   23253.23227715 -.00000119  00000+0 -36584-3 0  9991,2 25945  51.9956 173.2029 0001251 359.2988 167.6147 12.04768203 84815,12.04768203,0.0001251,LEO
25946,GLOBALSTAR M031,1999,118.42,-1.0,-,51.99,Inactive,0,LEO,Kazakhstan,Globalstar,Unknown,Unknown,Soyuz,1 25946U 99058D   23252.91512447 -.00000033  00000+0  58580-3 0  9999,2 25946  51.9949 105.0505 0001340 337.0401  39.0420 12.15995065 86169,12.15995065,0.000134,LEO
25961,GLOBALSTAR M039,1999,114.08,-1.0,-,51.98,Inactive,0,LEO,Kazakhstan,Globalstar,Unknown,Unknown,Soyuz,1 25961U 99062A   23252.80231654 -.00000087  00000+0  95425-4 0  9996,2 25961  51.9842  77.3757 0003011  12.3877 347.7063 12.62269470 98616,12.6226947,0.0003011,LEO
25962,GLOBALSTAR M034,1999,122.09,-1.0,-,51.98,Inactive,0,LEO,Kazakhstan,Globalstar,Unknown,Unknown,Soyuz,1 25962U 99062B   23252.51097705 -.00000052  00000+0  46454-3 0  9991,2 25962  51.9845 252.3249 0014053 260.4800 275.0316 11.79414788 62088,11.79414788,0.0014053,LEO
25963,GLOBALSTAR M029,1999,120.01,-1.0,-,51.98,Inactive,0,LEO,Kazakhstan,Globalstar,Unknown,Unknown,Soyuz,1 25963U 99062C   23252.85101576 -.00000071  00000+0  18942-3 0  9993,2 25963  51.9821  44.2618 0001846 296.6212 211.4373 11.99867150 91586,11.9986715,0.0001846,LEO
25964,GLOBALSTAR M061,1999,122.37,-1.0,-,51.98,Inactive,0,LEO,Kazakhstan,Globalstar,Unknown,Unknown,Soyuz,1 25964U 99062D   23252.81565043 -.00000050  00000+0  49876-3 0  9990,2 25964  51.9795  67.0014 0005759 182.7597 281.0408 11.76749566 45371,11.76749566,0.0005759,LEO
